ONEWEB-0116             
1 48046U 21025E   25194.82192204  .00000251  00000+0  65241-3 0  9999
2 48046  87.8956  27.4326 0001871  92.1778 267.9565 13.13471601209235
ONEWEB-0150             
1 48047U 21025F   25194.95056300 -.00000250  00000+0 -71929-3 0  9991
2 48047  87.8949  27.4034 0001615  89.5414 270.5900 13.13468997209144
ONEWEB-0107             
1 48048U 21025G   25194.79990206 -.00000216  00000+0 -62516-3 0  9990
2 48048  87.8952  27.4312 0001777  78.4150 281.7178 13.13469528209109
ONEWEB-0101             
1 48049U 21025H   25194.76267839  .00000262  00000+0  68310-3 0  9994
2 48049  87.8957  27.4779 0001888  84.0981 276.0363 13.13470125209074
ONEWEB-0113             
1 48050U 21025J   25194.76168463  .00000272  00000+0  70521-3 0  9997
2 48050  87.8957  27.4299 0001750  93.3847 266.7483 13.13975097209162
ONEWEB-0112             
1 48051U 21025K   25194.80499040 -.00000094  00000+0 -29233-3 0  9999
2 48051  87.8948  27.4270 0001716  88.4164 271.7162 13.13471773209174
ONEWEB-0156             
1 48052U 21025L   25194.81345430  .00000081  00000+0  18713-3 0  9999
2 48052  87.8953  27.4374 0001687  85.1357 274.9965 13.13471871209154
ONEWEB-0161             
1 48053U 21025M   25195.09279684  .00000709  00000+0  19061-2 0  9991
2 48053  87.8958  27.3995 0001689  83.1676 276.9645 13.13465743209138
